NORAD_CAT_ID,OBJECT_NAME,OBJECT_TYPE,EPOCH,MEAN_MOTION,ECCENTRICITY,INCLINATION,RA_OF_ASC_NODE,ARG_OF_PERICENTER,MEAN_ANOMALY,BSTAR,MEAN_MOTION_DOT,MEAN_MOTION_DDOT,TLE_LINE0,TLE_LINE1,TLE_LINE2,SEMIMAJOR_AXIS,PERIOD,APOGEE,PERIGEE,DECAYED
52283.0,STARLINK-3789,PAYLOAD,2022-06-23 06:00:00,15.16732067,0.0001551,53.2171,74.0365,57.6093,176.2167,-0.039156,-0.00723827,0.0,0 STARLINK-3789,1 52283U 22041Y   22174.25001157 -.00723827  00000-0 -39156-1 0  9992,2 52283  53.2171  74.0365 0001551  57.6093 176.2167 15.16732067 10962,6893.861999999999,94.941,516.7959999999998,514.658,0.0
52283.0,STARLINK-3789,PAYLOAD,2022-06-23 14:00:01,15.16220076,0.000162,53.2173,72.5223,50.5744,204.0195,-0.039577,-0.00721141,0.0,0 STARLINK-3789,1 52283U 22041Y   22174.58334491 -.00721141  00000-0 -39577-1 0  9992,2 52283  53.2173  72.5223 0001620  50.5744 204.0195 15.16220076  1303,6895.4140000000025,94.973,518.396,516.1619999999998,0.0
52283.0,STARLINK-3789,PAYLOAD,2022-06-23 22:00:00,15.15709674,0.0001805,53.2174,71.0125,42.9291,231.817,-0.040085,-0.00719918,0.0,0 STARLINK-3789,1 52283U 22041Y   22174.91667824 -.00719918  00000-0 -40085-1 0  9993,2 52283  53.2174  71.0125 0001805  42.9291 231.8170 15.15709674  1302,6896.962,95.005,520.072,517.582,0.0
52283.0,STARLINK-3789,PAYLOAD,2022-06-24 06:00:02,15.15203306,0.0001448,53.2171,69.5027,59.3313,235.0168,-0.041033,-0.00725896,0.0,0 STARLINK-3789,1 52283U 22041Y   22175.25002315 -.00725896  00000-0 -41033-1 0  9995,2 52283  53.2171  69.5027 0001448  59.3313 235.0168 15.15203306 11116,6898.498000000001,95.037,521.362,519.365,0.0
52283.0,STARLINK-3789,PAYLOAD,2022-06-24 14:00:01,15.14689099,0.0001538,53.2174,67.9922,49.9875,263.2277,-0.041244,-0.00719503,0.0,0 STARLINK-3789,1 52283U 22041Y   22175.58334491 -.00719503  00000-0 -41244-1 0  9996,2 52283  53.2174  67.9922 0001538  49.9875 263.2277 15.14689099  1303,6900.06,95.069,522.986,520.863,0.0
52283.0,STARLINK-3789,PAYLOAD,2022-06-24 22:00:01,15.14180569,0.0001603,53.2175,66.486,47.0942,284.4971,-0.041946,-0.00721156,0.0,0 STARLINK-3789,1 52283U 22041Y   22175.91668981 -.00721156  00000-0 -41946-1 0  9993,2 52283  53.2175  66.4860 0001603  47.0942 284.4971 15.14180569  1300,6901.604,95.101,524.576,522.363,0.0
52283.0,STARLINK-3789,PAYLOAD,2022-06-25 14:00:01,15.1315867,0.0001504,53.2173,63.4729,48.5138,317.8074,-0.043023,-0.00718783,0.0,0 STARLINK-3789,1 52283U 22041Y   22176.58334491 -.00718783  00000-0 -43023-1 0  9993,2 52283  53.2173  63.4729 0001504  48.5138 317.8074 15.13158670 11316,6904.7109999999975,95.165,527.615,525.538,0.0
52283.0,STARLINK-3789,PAYLOAD,2022-06-25 22:00:00,15.12651365,0.0001763,53.2175,61.9703,39.0861,343.7093,-0.043876,-0.00722412,0.0,0 STARLINK-3789,1 52283U 22041Y   22176.91667824 -.00722412  00000-0 -43876-1 0  9999,2 52283  53.2175  61.9703 0001763  39.0861 343.7093 15.12651365  1303,6906.255,95.197,529.3380000000002,526.9019999999998,0.0
52283.0,STARLINK-3789,PAYLOAD,2022-06-26 14:00:01,15.11629198,0.0001537,53.2174,58.964,47.8673,6.1075,-0.044965,-0.00719618,0.0,0 STARLINK-3789,1 52283U 22041Y   22177.58335648 -.00719618  00000-0 -44965-1 0  9993,2 52283  53.2174  58.9640 0001537  47.8673   6.1075 15.11629198 11472,6909.368,95.261,532.295,530.1709999999998,0.0
52283.0,STARLINK-3789,PAYLOAD,2022-06-26 22:00:00,15.11121742,0.0001756,53.2175,57.4653,41.3913,27.1562,-0.045838,-0.0072305,0.0,0 STARLINK-3789,1 52283U 22041Y   22177.91667824 -.00723050  00000-0 -45838-1 0  9999,2 52283  53.2175  57.4653 0001756  41.3913  27.1562 15.11121742  1307,6910.915,95.293,533.993,531.566,0.0
52283.0,STARLINK-3789,PAYLOAD,2022-06-27 14:00:01,15.10100171,0.0001579,53.2174,54.466,47.3797,48.6073,-0.04702,-0.00721062,0.0,0 STARLINK-3789,1 52283U 22041Y   22178.58334491 -.00721062  00000-0 -47020-1 0  9990,2 52283  53.2174  54.4660 0001579  47.3797  48.6073 15.10100171 11623,6914.031,95.358,536.988,534.805,0.0
52283.0,STARLINK-3789,PAYLOAD,2022-06-27 22:00:00,15.09548543,0.0001636,53.2175,52.9705,39.5625,69.232,-0.041052,-0.0062601,0.0,0 STARLINK-3789,1 52283U 22041Y   22178.91667824 -.00626010  00000-0 -41052-1 0  9992,2 52283  53.2175  52.9705 0001636  39.5625  69.2320 15.09548543  1309,6915.715999999999,95.393,538.712,536.4490000000002,0.0
52283.0,STARLINK-3789,PAYLOAD,2022-06-28 06:00:00,15.09152373,0.0001174,53.2173,51.4734,60.8269,60.1304,-0.027009,-0.00409802,0.0,0 STARLINK-3789,1 52283U 22041Y   22179.25001157 -.00409802  00000-0 -27009-1 0  9995,2 52283  53.2173  51.4734 0001174  60.8269  60.1304 15.09152373 11722,6916.926,95.418,539.6030000000002,537.979,0.0
52283.0,STARLINK-3789,PAYLOAD,2022-06-28 14:00:01,15.0883717,0.0001613,53.2174,49.9755,52.788,79.9585,-6.7953e-05,-1.369e-05,0.0,0 STARLINK-3789,1 52283U 22041Y   22179.58334491 -.00001369  00000-0 -67953-4 0  9992,2 52283  53.2174  49.9755 0001613  52.7880  79.9585 15.08837170 11773,6917.889,95.438,540.87,538.638,0.0
52283.0,STARLINK-3789,PAYLOAD,2022-06-28 22:00:00,15.08850545,0.0001686999999999,53.219,48.4715,53.4047,90.8796,-0.00054973,-9.029e-05,0.0,0 STARLINK-3789,1 52283U 22041Y   22179.91667824 -.00009029  00000-0 -54973-3 0  9996,2 52283  53.2190  48.4715 0001687  53.4047  90.8796 15.08850545  1300,6917.848000000001,95.437,540.88,538.5459999999998,0.0
52283.0,STARLINK-3789,PAYLOAD,2022-06-29 14:00:01,15.08818174,0.0001513,53.219,45.477,57.588,109.8993,0.0019898,0.00031503,0.0,0 STARLINK-3789,1 52283U 22041Y   22180.58334491  .00031503  00000-0  19898-2 0  9998,2 52283  53.2190  45.4770 0001513  57.5880 109.8993 15.08818174  1308,6917.946999999999,95.439,540.859,538.765,0.0
52283.0,STARLINK-3789,PAYLOAD,2022-06-29 22:00:00,15.08832084,0.0001688,53.2189,43.9826,51.5142,127.556,-0.00022529,-3.871e-05,0.0,0 STARLINK-3789,1 52283U 22041Y   22180.91667824 -.00003871  00000-0 -22529-3 0  9999,2 52283  53.2189  43.9826 0001688  51.5142 127.5560 15.08832084  1302,6917.905,95.438,540.937,538.602,0.0
52283.0,STARLINK-3789,PAYLOAD,2022-06-30 14:00:01,15.0883438,0.0001595999999999,53.2192,40.988,58.2897,143.9582,0.001757,0.00027781,0.0,0 STARLINK-3789,1 52283U 22041Y   22181.58334491  .00027781  00000-0  17570-2 0  9997,2 52283  53.2192  40.9880 0001596  58.2897 143.9582 15.08834380  1309,6917.898,95.438,540.867,538.658,0.0
52283.0,STARLINK-3789,PAYLOAD,2022-06-30 22:00:00,15.08842907,0.0001778,53.2192,39.4935,52.0288,161.8205,0.00022352,3.271e-05,0.0,0 STARLINK-3789,1 52283U 22041Y   22181.91667824  .00003271  00000-0  22352-3 0  9996,2 52283  53.2192  39.4935 0001778  52.0288 161.8205 15.08842907 12128,6917.871999999999,95.437,540.967,538.507,0.0
52283.0,STARLINK-3789,PAYLOAD,2022-07-01 14:00:01,15.08856972,0.0001631999999999,53.2196,36.4989,59.136,177.9197,0.00012821,1.754e-05,0.0,0 STARLINK-3789,1 52283U 22041Y   22182.58334491  .00001754  00000-0  12821-3 0  9995,2 52283  53.2196  36.4989 0001632  59.1360 177.9197 15.08856972  1309,6917.829000000002,95.436,540.823,538.565,0.0
52283.0,STARLINK-3789,PAYLOAD,2022-07-01 22:00:00,15.08835172,0.0001759,53.2196,35.0043,51.0519,197.6267,-0.00048663,-8.023e-05,0.0,0 STARLINK-3789,1 52283U 22041Y   22182.91667824 -.00008023  00000-0 -48663-3 0  9992,2 52283  53.2196  35.0043 0001759  51.0519 197.6267 15.08835172  1308,6917.895,95.438,540.977,538.543,0.0
52283.0,STARLINK-3789,PAYLOAD,2022-07-02 14:00:01,15.08838324,0.0001573,53.22,32.0098,58.6748,213.1809,0.0012833,0.00020194,0.0,0 STARLINK-3789,1 52283U 22041Y   22183.58334491  .00020194  00000-0  12833-2 0  9997,2 52283  53.2200  32.0098 0001573  58.6748 213.1809 15.08838324  1300,6917.886,95.438,540.839,538.6619999999998,0.0
52283.0,STARLINK-3789,PAYLOAD,2022-07-02 22:00:00,15.08844371,0.0001738,53.2199,30.5152,51.3031,232.1656,0.0011802,0.00018547,0.0,0 STARLINK-3789,1 52283U 22041Y   22183.91667824  .00018547  00000-0  11802-2 0  9997,2 52283  53.2199  30.5152 0001738  51.3031 232.1656 15.08844371  1309,6917.8669999999975,95.437,540.934,538.53,0.0
52283.0,STARLINK-3789,PAYLOAD,2022-07-03 14:00:01,15.0887296,0.0001581,53.2201,27.5208,60.8051,245.8895,-0.0028059,-0.00044707,0.0,0 STARLINK-3789,1 52283U 22041Y   22184.58334491 -.00044707  00000-0 -28059-2 0  9993,2 52283  53.2201  27.5208 0001581  60.8051 245.8895 15.08872960  1305,6917.78,95.435,540.738,538.5509999999998,0.0
52283.0,STARLINK-3789,PAYLOAD,2022-07-03 22:00:00,15.08812062,0.0001739,53.22,26.0263,53.7368,264.574,0.00040481,6.156e-05,0.0,0 STARLINK-3789,1 52283U 22041Y   22184.91667824  .00006156  00000-0  40481-3 0  9997,2 52283  53.2200  26.0263 0001739  53.7368 264.5740 15.08812062  1300,6917.965999999999,95.439,541.034,538.628,0.0
52283.0,STARLINK-3789,PAYLOAD,2022-07-04 14:00:01,15.08823611,0.0001557,53.22,23.0322,62.1994,279.2331,0.00035437,5.354e-05,0.0,0 STARLINK-3789,1 52283U 22041Y   22185.58334491  .00005354  00000-0  35437-3 0  9996,2 52283  53.2200  23.0322 0001557  62.1994 279.2331 15.08823611  1301,6917.93,95.439,540.873,538.7180000000002,0.0
52283.0,STARLINK-3789,PAYLOAD,2022-07-04 22:00:00,15.08814246,0.0001710999999999,53.2198,21.5378,54.9306,298.0894,0.0016389,0.00025873,0.0,0 STARLINK-3789,1 52283U 22041Y   22185.91667824  .00025873  00000-0  16389-2 0  9994,2 52283  53.2198  21.5378 0001711  54.9306 298.0894 15.08814246  1306,6917.959,95.439,541.008,538.64,0.0
52283.0,STARLINK-3789,PAYLOAD,2022-07-05 14:00:01,15.08845607,0.0001583,53.2197,18.5437,63.0942,313.0846,6.5811e-05,7.6e-06,0.0,0 STARLINK-3789,1 52283U 22041Y   22186.58334491  .00000760  00000-0  65811-4 0  9993,2 52283  53.2197  18.5437 0001583  63.0942 313.0846 15.08845607  1301,6917.863,95.437,540.823,538.633,0.0
52283.0,STARLINK-3789,PAYLOAD,2022-07-05 22:00:00,15.08825622,0.0001727,53.2195,17.0492,56.0007,331.7824,0.0019732,0.00031243,0.0,0 STARLINK-3789,1 52283U 22041Y   22186.91667824  .00031243  00000-0  19732-2 0  9998,2 52283  53.2195  17.0492 0001727  56.0007 331.7824 15.08825622 12881,6917.924,95.438,540.984,538.595,0.0
